#cV2017 12  3  0  0  0.00000000     673   SLR  ECEF FIT  ASI
## 1978      0.00000000   900.00000000 58090 0.0000000000000
+    1   L54  0  0  0  0  0  0  0  0  0  0  0  0  0  0  0  0
+          0  0  0  0  0  0  0  0  0  0  0  0  0  0  0  0  0
+          0  0  0  0  0  0  0  0  0  0  0  0  0  0  0  0  0
+          0  0  0  0  0  0  0  0  0  0  0  0  0  0  0  0  0
+          0  0  0  0  0  0  0  0  0  0  0  0  0  0  0  0  0
++         0  0  0  0  0  0  0  0  0  0  0  0  0  0  0  0  0
++         0  0  0  0  0  0  0  0  0  0  0  0  0  0  0  0  0
++         0  0  0  0  0  0  0  0  0  0  0  0  0  0  0  0  0
++         0  0  0  0  0  0  0  0  0  0  0  0  0  0  0  0  0
++         0  0  0  0  0  0  0  0  0  0  0  0  0  0  0  0  0
%c L  cc UTC ccc cccc cccc cccc cccc ccccc ccccc ccccc ccccc
%c cc cc ccc ccc cccc cccc cccc cccc ccccc ccccc ccccc ccccc
%f  0.0000000  0.000000000  0.00000000000  0.000000000000000
%f  0.0000000  0.000000000  0.00000000000  0.000000000000000
%i    0    0    0    0      0      0      0      0         0
%i    0    0    0    0      0      0      0      0         0
/* For a generic SP3c orbit file "asi.orb.yymmdd.v#.sp3c"   
/*                    the reference system is SLRF2008      
/*                                                          
/*                                                          
*  2017 12  5  8  0  0.00000000
PL54   7365.497388  -7802.401241  23157.546158 999999.999999
VL54  23390.754162  21358.314977   -295.963437 999999.999999
*  2017 12  5  8 15  0.00000000
PL54   9532.073075  -5966.891242  22906.483873 999999.999999
VL54  24650.614798  19351.953003  -5274.609095 999999.999999
*  2017 12  5  8 30  0.00000000
PL54  11782.638264  -4331.478543  22211.104196 999999.999999
VL54  25245.667561  16931.809854 -10153.717881 999999.999999
*  2017 12  5  8 45  0.00000000
PL54  14054.649730  -2927.769991  21084.642331 999999.999999
VL54  25120.207756  14225.181404 -14838.683019 999999.999999
*  2017 12  5  9  0  0.00000000
PL54  16281.806926  -1775.430547  19548.703531 999999.999999
VL54  24246.775111  11369.200977 -19238.409635 999999.999999
*  2017 12  5  9 15  0.00000000
PL54  18396.665588   -881.558586  17632.867010 999999.999999
VL54  22627.545242   8504.996540 -23267.082519 999999.999999
*  2017 12  5  9 30  0.00000000
PL54  20333.321844   -240.596865  15374.134076 999999.999999
VL54  20294.497765   5771.671314 -26845.854465 999999.999999
*  2017 12  5  9 45  0.00000000
PL54  22030.055545    165.216200  12816.229158 999999.999999
VL54  17308.343502   3300.358168 -29904.421174 999999.999999
*  2017 12  5 10  0  0.00000000
PL54  23431.822291    364.872890  10008.765483 999999.999999
VL54  13756.244847   1208.598388 -32382.448672 999999.999999
*  2017 12  5 10 15  0.00000000
PL54  24492.489004    397.140300   7006.290160 999999.999999
VL54   9748.414896   -404.714912 -34230.820136 999999.999999
*  2017 12  5 10 30  0.00000000
PL54  25176.717847    308.683109   3867.226360 999999.999999
VL54   5413.730213  -1463.609315 -35412.671076 999999.999999
*  2017 12  5 10 45  0.00000000
PL54  25461.417480    151.844293    652.732899 999999.999999
VL54    894.536702  -1918.333258 -35904.185276 999999.999999
*  2017 12  5 11  0  0.00000000
PL54  25336.698564    -17.821681  -2574.496166 999999.999999
VL54  -3659.134373  -1747.535673 -35695.128611 999999.999999
*  2017 12  5 11 15  0.00000000
PL54  24806.291274   -144.157457  -5751.467530 999999.999999
VL54  -8095.694729   -959.224795 -34789.103861 999999.999999
*  2017 12  5 11 30  0.00000000
PL54  23887.405600   -173.040769  -8816.134615 999999.999999
VL54 -12268.208774    409.540945 -33203.516655 999999.999999
*  2017 12  5 11 45  0.00000000
PL54  22610.039183    -54.937673 -11708.627374 999999.999999
VL54 -16040.416201   2294.220898 -30969.250360 999999.999999
*  2017 12  5 12  0  0.00000000
PL54  21015.761401    252.739744 -14372.439909 999999.999999
VL54 -19292.306162   4605.553734 -28130.055712 999999.999999
*  2017 12  5 12 15  0.00000000
PL54  19156.025118    783.573641 -16755.550823 999999.999999
VL54 -21925.001166   7233.393785 -24741.668762 999999.999999
*  2017 12  5 12 30  0.00000000
PL54  17090.078008   1560.468253 -18811.452696 999999.999999
VL54 -23864.739714  10051.455487 -20870.677993 999999.999999
*  2017 12  5 12 45  0.00000000
PL54  14882.562556   2594.437949 -20500.069327 999999.999999
VL54 -25065.787256  12922.759137 -16593.167754 999999.999999
*  2017 12  5 13  0  0.00000000
PL54  12600.907072   3883.908171 -21788.542005 999999.999999
VL54 -25512.153209  15705.540893 -11993.170330 999999.999999
*  2017 12  5 13 15  0.00000000
PL54  10312.618710   5414.559602 -22651.869209 999999.999999
VL54 -25218.044995  18259.370735  -7160.962854 999999.999999
*  2017 12  5 13 30  0.00000000
PL54   8082.593158   7159.722404 -23073.387489 999999.999999
VL54 -24227.045714  20451.214591  -2191.247820 999999.999999
*  2017 12  5 13 45  0.00000000
PL54   5970.554406   9081.303776 -23045.084859 999999.999999
VL54 -22610.057448  22161.181133   2818.742728 999999.999999
*  2017 12  5 14  0  0.00000000
PL54   4028.731799  11131.209284 -22567.741643 999999.999999
VL54 -20462.104902  23287.709250   7771.179013 999999.999999
*  2017 12  5 14 15  0.00000000
PL54   2299.870872  13253.197611 -21650.897330 999999.999999
VL54 -17898.141790  23751.978014  12569.561691 999999.999999
*  2017 12  5 14 30  0.00000000
PL54    815.659745  15385.090168 -20312.645502 999999.999999
VL54 -15048.043331  23501.355615  17120.608141 999999.999999
*  2017 12  5 14 45  0.00000000
PL54   -404.365185  17461.242394 -18579.262244 999999.999999
VL54 -12051.000796  22511.745675  21336.060612 999999.999999
*  2017 12  5 15  0  0.00000000
PL54  -1353.391046  19415.172880 -16484.676615 999999.999999
VL54  -9049.557195  20788.736622  25134.382404 999999.999999
*  2017 12  5 15 15  0.00000000
PL54  -2037.356792  21182.240240 -14069.794682 999999.999999
VL54  -6183.536175  18367.510523  28442.311101 999999.999999
*  2017 12  5 15 30  0.00000000
PL54  -2474.439860  22702.256075 -11381.691241 999999.999999
VL54  -3584.118659  15311.519722  31196.241079 999999.999999
*  2017 12  5 15 45  0.00000000
PL54  -2694.025668  23921.925435  -8472.685720 999999.999999
VL54  -1368.313726  11709.990850  33343.411126 999999.999999
*  2017 12  5 16  0  0.00000000
PL54  -2735.205891  24797.013740  -5399.320744 999999.999999
VL54    365.947843   7674.364047  34842.876915 999999.999999
*  2017 12  5 16 15  0.00000000
PL54  -2644.870841  25294.150853  -2221.263469 999999.999999
VL54   1543.896199   3333.818785  35666.252382 999999.999999
*  2017 12  5 16 30  0.00000000
PL54  -2475.477850  25392.198302    999.848965 999999.999999
VL54   2117.015444  -1169.925446  35798.208623 999999.999999
*  2017 12  5 16 45  0.00000000
PL54  -2282.590631  25083.124001   4201.597693 999999.999999
VL54   2065.023069  -5688.316443  35236.723661 999999.999999
*  2017 12  5 17  0  0.00000000
PL54  -2122.293685  24372.349272   7321.981581 999999.999999
VL54   1396.658420 -10071.947820  33993.081273 999999.999999
*  2017 12  5 17 15  0.00000000
PL54  -2048.590582  23278.554839  10300.605362 999999.999999
VL54    149.252080 -14176.562112  32091.621826 999999.999999
*  2017 12  5 17 30  0.00000000
PL54  -2110.895217  21832.954675  13079.834461 999999.999999
VL54  -1612.901857 -17868.832623  29569.252448 999999.999999
*  2017 12  5 17 45  0.00000000
PL54  -2351.720975  20078.068349  15605.895312 999999.999999
VL54  -3801.300224 -21031.688221  26474.728071 999999.999999
*  2017 12  5 18  0  0.00000000
PL54  -2804.664296  18066.042891  17829.901220 999999.999999
VL54  -6306.996119 -23568.965323  22867.718439 999999.999999
*  2017 12  5 18 15  0.00000000
PL54  -3492.766918  15856.593410  19708.785285 999999.999999
VL54  -9005.219168 -25409.199611  18817.679170 999999.999999
*  2017 12  5 18 30  0.00000000
PL54  -4427.325395  13514.647034  21206.123677 999999.999999
VL54 -11760.660939 -26508.404915  14402.547660 999999.999999
*  2017 12  5 18 45  0.00000000
PL54  -5607.198219  11107.786663  22292.834502 999999.999999
VL54 -14433.209607 -26851.728219   9707.286383 999999.999999
*  2017 12  5 19  0  0.00000000
PL54  -7018.640567   8703.599015  22947.739605 999999.999999
VL54 -16883.900233 -26453.914208   4822.298001 999999.999999
*  2017 12  5 19 15  0.00000000
PL54  -8635.675191   6367.035325  23157.978923 999999.999999
VL54 -18980.838278 -25358.560210   -158.262013 999999.999999
*  2017 12  5 19 30  0.00000000
PL54 -10420.986124   4157.892643  22919.269372 999999.999999
VL54 -20604.854304 -23636.190279  -5138.248246 999999.999999
*  2017 12  5 19 45  0.00000000
PL54 -12327.300437   2128.518928  22236.002730 999999.999999
VL54 -21654.657350 -21381.224144 -10021.335490 999999.999999
*  2017 12  5 20  0  0.00000000
PL54 -14299.203117    321.836319  21121.179584 999999.999999
VL54 -22051.272889 -18707.961153 -14712.846618 999999.999999
*  2017 12  5 20 15  0.00000000
PL54 -16275.312029  -1230.235693  19596.179121 999999.999999
VL54 -21741.578057 -15745.739655 -19121.567328 999999.999999
*  2017 12  5 20 30  0.00000000
PL54 -18190.724549  -2507.891551  17690.367385 999999.999999
VL54 -20700.781348 -12633.467040 -23161.515594 999999.999999
*  2017 12  5 20 45  0.00000000
PL54 -19979.635517  -3504.038561  15440.549569 999999.999999
VL54 -18933.735230  -9513.743373 -26753.632527 999999.999999
*  2017 12  5 21  0  0.00000000
PL54 -21578.018188  -4224.357713  12890.274934 999999.999999
VL54 -16475.016784  -6526.821039 -29827.360669 999999.999999
*  2017 12  5 21 15  0.00000000
PL54 -22926.256267  -4686.822930  10089.006031 999999.999999
VL54 -13387.762057  -3804.652803 -32322.075702 999999.999999
*  2017 12  5 21 30  0.00000000
PL54 -23971.616198  -4920.698116   7091.166908 999999.999999
VL54  -9761.292344  -1465.280415 -34188.338440 999999.999999
*  2017 12  5 21 45  0.00000000
PL54 -24670.454644  -4965.053594   3955.087904 999999.999999
VL54  -5707.622914    392.195262 -35388.936065 999999.999999
EOF
